25478,ORBCOMM FM24,1998,100.34,-1.0,-,45.01,Inactive,0,LEO,Eastern Range Airspace,ORBCOMM,Unknown,Unknown,Pegasus,1 25478U 98053D   24029.65868439  .00001771  00000+0  66274-3 0  9990,2 25478  45.0077 135.6061 0002847 222.0510 138.0119 14.35179245324896,14.35179245,0.0002847,LEO
25479,ORBCOMM FM25,1998,100.34,-1.0,-,45.01,Inactive,0,LEO,Eastern Range Airspace,ORBCOMM,Unknown,Unknown,Pegasus,1 25479U 98053E   24029.62373129  .00001921  00000+0  71495-3 0  9993,2 25479  45.0071 134.0095 0005329 235.5147 124.5197 14.35164079325182,14.35164079,0.0005329,LEO
25480,ORBCOMM FM26,1998,100.37,-1.0,-,45.01,Inactive,0,LEO,Eastern Range Airspace,ORBCOMM,Unknown,Unknown,Pegasus,1 25480U 98053F   24030.35923690  .00001560  00000+0  59555-3 0  9993,2 25480  45.0071 124.2567 0007137 257.8050 102.1998 14.34680174325334,14.34680174,0.0007137,LEO
25482,ORBCOMM FM28,1998,100.31,-1.0,-,45.01,Inactive,0,LEO,Eastern Range Airspace,ORBCOMM,Unknown,Unknown,Pegasus,1 25482U 98053H   24029.97698955  .00001542  00000+0  57855-3 0  9995,2 25482  45.0060  71.4227 0005770 280.4723  79.5474 14.35609292326004,14.35609292,0.000577,LEO
25980,ORBCOMM FM30,1999,100.36,45.0,-,45.03,Inactive,1,LEO,Eastern Range Airspace,ORBCOMM,Commercial,Communications,Pegasus,1 25980U 99065A   24029.21698355  .00001605  00000+0  60956-3 0  9999,2 25980  45.0335 315.0757 0007232 355.8092   4.2693 14.34821566261867,14.34821566,0.0007232,LEO
25981,ORBCOMM FM31,1999,100.36,45.0,-,45.02,Inactive,1,LEO,Eastern Range Airspace,ORBCOMM,Commercial,Communications,Pegasus,1 25981U 99065B   24029.87939813  .00001425  00000+0  54666-3 0  9990,2 25981  45.0245 305.7239 0004101  16.3615 343.7364 14.34834744261511,14.34834744,0.0004101,LEO
25481,ORBCOMM FM27,1998,100.34,45.0,+,45.0,Active,1,LEO,Eastern Range Airspace,ORBCOMM,Commercial,Communications,Pegasus,1 25481U 98053G   24028.42693180  .00001863  00000+0  69550-3 0  9999,2 25481  45.0050 139.9180 0001205 218.7021 141.3740 14.35131522324945,14.35131522,0.0001205,LEO
25982,ORBCOMM FM32,1999,100.43,45.0,+,45.02,Active,1,LEO,Eastern Range Airspace,ORBCOMM,Commercial,Communications,Pegasus,1 25982U 99065C   24029.78788652  .00001448  00000+0  56609-3 0  9998,2 25982  45.0179 319.2197 0006350  19.0634 341.0449 14.33810164262144,14.33810164,0.000635,LEO
